NORAD_CAT_ID,OBJECT_NAME,OBJECT_TYPE,EPOCH,MEAN_MOTION,ECCENTRICITY,INCLINATION,RA_OF_ASC_NODE,ARG_OF_PERICENTER,MEAN_ANOMALY,BSTAR,MEAN_MOTION_DOT,MEAN_MOTION_DDOT,TLE_LINE0,TLE_LINE1,TLE_LINE2,SEMIMAJOR_AXIS,PERIOD,APOGEE,PERIGEE,DECAYED
53869.0,STARLINK-4810,PAYLOAD,2022-09-23 16:00:00,15.88583322,0.0032488,53.2174,236.2056,55.4708,41.9555,-0.0040934,-0.01222947,0.00042689,0 STARLINK-4810,1 53869U 22114BD  22266.66667824 -.01222947  42689-3 -40934-2 0  9997,2 53869  53.2174 236.2056 0032488  55.4708  41.9555 15.88583322  1301,6684.391,90.647,327.972,284.54,0.0
53869.0,STARLINK-4810,PAYLOAD,2022-09-24 06:00:00,15.8706898,0.0026652,53.2172,233.257,56.9969,136.9281,-0.0045806,-0.01248779,0.0004373,0 STARLINK-4810,1 53869U 22114BD  22267.25001157 -.01248779  43730-3 -45806-2 0  9996,2 53869  53.2172 233.2570 0026652  56.9969 136.9281 15.87068980  1395,6688.642,90.733,328.334,292.681,0.0
53869.0,STARLINK-4810,PAYLOAD,2022-09-24 14:00:01,15.86248834,0.0023197,53.2171,231.5733,56.8634,242.241,-0.0051324,-0.0133286,0.00048876,0 STARLINK-4810,1 53869U 22114BD  22267.58335648 -.01332860  48876-3 -51324-2 0  9990,2 53869  53.2171 231.5733 0023197  56.8634 242.2410 15.86248834  1308,6690.948,90.78,328.334,297.2920000000001,0.0
53869.0,STARLINK-4810,PAYLOAD,2022-09-24 22:00:00,15.85377459,0.0019648,53.2176,229.8923,55.0784,348.0455,-0.0052851,-0.01159074,0.0,0 STARLINK-4810,1 53869U 22114BD  22267.91667824 -.01159074  00000-0 -52851-2 0  9995,2 53869  53.2176 229.8923 0019648  55.0784 348.0455 15.85377459  1496,6693.399,90.83,328.415,302.113,0.0
53869.0,STARLINK-4810,PAYLOAD,2022-09-25 14:00:01,15.83677374,0.0012654,53.2174,226.5382,49.6272,198.5373,-0.0061236,-0.01236335,0.0,0 STARLINK-4810,1 53869U 22114BD  22268.58334491 -.01236335  00000-0 -61236-2 0  9993,2 53869  53.2174 226.5382 0012654  49.6272 198.5373 15.83677374  1302,6698.189,90.928,328.529,311.578,0.0
53869.0,STARLINK-4810,PAYLOAD,2022-09-25 22:00:01,15.82791948,0.0008762,53.2175,224.8634,47.2453,301.9535,-0.0062347999999999,-0.01204445,0.0,0 STARLINK-4810,1 53869U 22114BD  22268.91668981 -.01204445  00000-0 -62348-2 0  9996,2 53869  53.2175 224.8634 0008762  47.2453 301.9535 15.82791948  1307,6700.686,90.978,328.422,316.68,0.0
53869.0,STARLINK-4810,PAYLOAD,2022-09-26 10:00:00,15.81499943,0.0005571,53.217,222.3578,37.9493,280.6661,-0.006731,-0.01217839,0.0,0 STARLINK-4810,1 53869U 22114BD  22269.41667824 -.01217839  00000-0 -67310-2 0  9992,2 53869  53.2170 222.3578 0005571  37.9493 280.6661 15.81499943  1736,6704.335,91.053,329.935,322.465,0.0
53869.0,STARLINK-4810,PAYLOAD,2022-09-26 14:00:01,15.8105789,0.0004591999999999,53.2174,221.522,32.8397,155.0873,-0.0067934,-0.01204637,0.0,0 STARLINK-4810,1 53869U 22114BD  22269.58334491 -.01204637  00000-0 -67934-2 0  9995,2 53869  53.2174 221.5220 0004592  32.8397 155.0873 15.81057890  1308,6705.585,91.078,330.529,324.371,0.0
53869.0,STARLINK-4810,PAYLOAD,2022-09-26 22:00:00,15.80203308,0.0002604,53.2177,219.8539,337.4908,308.2643,-0.0072133,-0.01224998,0.0,0 STARLINK-4810,1 53869U 22114BD  22269.91667824 -.01224998  00000-0 -72133-2 0  9990,2 53869  53.2177 219.8539 0002604 337.4908 308.2643 15.80203308  1301,6708.002,91.128,331.6140000000001,328.12,0.0
53869.0,STARLINK-4810,PAYLOAD,2022-09-27 06:00:00,15.79340352,0.0003922,53.2175,218.1895,293.5539,88.9835,-0.0074808999999999,-0.01222244,0.0,0 STARLINK-4810,1 53869U 22114BD  22270.25001157 -.01222244  00000-0 -74809-2 0  9994,2 53869  53.2175 218.1895 0003922 293.5539  88.9835 15.79340352  1867,6710.446,91.177,334.94199999999995,329.6790000000001,0.0
53869.0,STARLINK-4810,PAYLOAD,2022-09-27 14:00:01,15.78558757,0.00061,53.2173,216.5247,276.402,201.8391,-0.008528,-0.0135625,0.0,0 STARLINK-4810,1 53869U 22114BD  22270.58334491 -.01356250  00000-0 -85280-2 0  9990,2 53869  53.2173 216.5247 0006100 276.4020 201.8391 15.78558757  1305,6712.66,91.222,338.62,330.431,0.0
53869.0,STARLINK-4810,PAYLOAD,2022-09-27 22:00:01,15.77594769,0.0006492,53.217,214.8623,269.6846,303.3761,-0.0080048999999999,-0.01211594,0.0,0 STARLINK-4810,1 53869U 22114BD  22270.91668981 -.01211594  00000-0 -80049-2 0  9990,2 53869  53.2170 214.8623 0006492 269.6846 303.3761 15.77594769  1306,6715.395,91.278,341.619,332.9,0.0
53869.0,STARLINK-4810,PAYLOAD,2022-09-28 06:00:00,15.76801419,0.0001345,53.2175,213.206,317.7897,348.825,-0.0090137999999999,-0.01323967,0.0,0 STARLINK-4810,1 53869U 22114BD  22271.25001157 -.01323967  00000-0 -90138-2 0  9992,2 53869  53.2175 213.2060 0001345 317.7897 348.8250 15.76801419  2021,6717.647,91.324,340.415,338.608,0.0
53869.0,STARLINK-4810,PAYLOAD,2022-09-28 14:00:01,15.75915929,0.0001199,53.2174,211.5471,26.0641,13.1818,-0.0092456,-0.01307325,0.0,0 STARLINK-4810,1 53869U 22114BD  22271.58334491 -.01307325  00000-0 -92456-2 0  9993,2 53869  53.2174 211.5471 0001199  26.0641  13.1818 15.75915929  2079,6720.163000000001,91.375,342.834,341.222,0.0
53869.0,STARLINK-4810,PAYLOAD,2022-09-28 22:00:00,15.7499729,0.0001448,53.2173,209.8915,45.7892,85.0561,-0.009067,-0.01217411,0.0,0 STARLINK-4810,1 53869U 22114BD  22271.91667824 -.01217411  00000-0 -90670-2 0  9991,2 53869  53.2173 209.8915 0001448  45.7892  85.0561 15.74997290  1302,6722.776,91.429,345.61400000000015,343.667,0.0
53869.0,STARLINK-4810,PAYLOAD,2022-09-29 06:00:00,15.73981108,0.0001438,53.2175,208.241,48.2592,173.1458,-0.0061688999999999,-0.00814127,0.0,0 STARLINK-4810,1 53869U 22114BD  22272.25001157 -.00814127  00000-0 -61689-2 0  9994,2 53869  53.2175 208.2410 0001438  48.2592 173.1458 15.73981108  2182,6725.669,91.488,348.501,346.56699999999995,0.0
53869.0,STARLINK-4810,PAYLOAD,2022-09-29 14:00:01,15.73254226,0.0001361,53.2175,206.5889,59.9373,250.9939,-0.00059238,-0.00083132,0.0,0 STARLINK-4810,1 53869U 22114BD  22272.58334491 -.00083132  00000-0 -59238-3 0  9992,2 53869  53.2175 206.5889 0001361  59.9373 250.9939 15.73254226  1309,6727.741,91.53,350.521,348.69,0.0
53869.0,STARLINK-4810,PAYLOAD,2022-09-29 22:00:00,15.73277933,0.000105,53.2152,204.9354,61.6752,338.2459,-0.00048444,-0.00068283,0.0,0 STARLINK-4810,1 53869U 22114BD  22272.91667824 -.00068283  00000-0 -48444-3 0  9995,2 53869  53.2152 204.9354 0001050  61.6752 338.2459 15.73277933  1306,6727.6730000000025,91.529,350.244,348.832,0.0
53869.0,STARLINK-4810,PAYLOAD,2022-09-30 06:00:02,15.73207526,0.0001153,53.2152,203.2875,51.5305,77.4546,7.0567e-05,9.298e-05,0.0,0 STARLINK-4810,1 53869U 22114BD  22273.25002315  .00009298  00000-0  70567-4 0  9992,2 53869  53.2152 203.2875 0001153  51.5305  77.4546 15.73207526  2347,6727.874,91.533,350.514,348.963,0.0
53869.0,STARLINK-4810,PAYLOAD,2022-09-30 14:00:01,15.73205093,0.0001,53.2154,201.636,60.9958,156.8691,-0.00016113,-0.00023175,0.0,0 STARLINK-4810,1 53869U 22114BD  22273.58334491 -.00023175  00000-0 -16113-3 0  9999,2 53869  53.2154 201.6360 0001000  60.9958 156.8691 15.73205093  1304,6727.880999999999,91.533,350.418,349.0730000000001,0.0
53869.0,STARLINK-4810,PAYLOAD,2022-09-30 22:00:00,15.73189719,0.0001001,53.2153,199.9868,62.1402,244.6602,0.00032587,0.0004533999999999,0.0,0 STARLINK-4810,1 53869U 22114BD  22273.91667824  .00045340  00000-0  32587-3 0  9994,2 53869  53.2153 199.9868 0001001  62.1402 244.6602 15.73189719  1308,6727.924,91.534,350.463,349.116,0.0
53869.0,STARLINK-4810,PAYLOAD,2022-10-01 14:00:01,15.73207136,9.67e-05,53.2145,196.6873,67.0494,57.6555,-0.00013987,-0.00020207,0.0,0 STARLINK-4810,1 53869U 22114BD  22274.58334491 -.00020207  00000-0 -13987-3 0  9999,2 53869  53.2145 196.6873 0000967  67.0494  57.6555 15.73207136  2555,6727.875,91.533,350.39,349.089,0.0
53869.0,STARLINK-4810,PAYLOAD,2022-10-01 22:00:00,15.7322256,9.63e-05,53.2147,195.0383,69.2778,144.3459,-0.00074658,-0.00104205,0.0,0 STARLINK-4810,1 53869U 22114BD  22274.91667824 -.00104205  00000-0 -74658-3 0  9998,2 53869  53.2147 195.0383 0000963  69.2778 144.3459 15.73222560  1308,6727.831,91.532,350.344,349.048,0.0
53869.0,STARLINK-4810,PAYLOAD,2022-10-02 06:00:00,15.73110043,9.82e-05,53.2146,193.3903,54.6633,247.8805,0.00062563,0.00087764,0.0,0 STARLINK-4810,1 53869U 22114BD  22275.25001157  .00087764  00000-0  62563-3 0  9997,2 53869  53.2146 193.3903 0000982  54.6633 247.8805 15.73110043  2650,6728.151999999999,91.538,350.677,349.356,0.0
53869.0,STARLINK-4810,PAYLOAD,2022-10-02 14:00:01,15.73145768,7.99e-05,53.2149,191.7387,68.7187,322.6911,0.00078093,0.00110168,0.0,0 STARLINK-4810,1 53869U 22114BD  22275.58334491  .00110168  00000-0  78093-3 0  9993,2 53869  53.2149 191.7387 0000799  68.7187 322.6911 15.73145768  1300,6728.05,91.536,350.452,349.37699999999984,0.0
53869.0,STARLINK-4810,PAYLOAD,2022-10-02 22:00:00,15.73265616,0.0001013,53.2149,190.0899,68.8901,51.418,-0.00018033,-0.0002592,0.0,0 STARLINK-4810,1 53869U 22114BD  22275.91667824 -.00025920  00000-0 -18033-3 0  9990,2 53869  53.2149 190.0899 0001013  68.8901  51.4180 15.73265616  1305,6727.708000000001,91.529,350.255,348.892,0.0
53869.0,STARLINK-4810,PAYLOAD,2022-10-03 06:00:00,15.73237515,0.0001185,53.2144,188.4415,63.594,145.7183,0.00017638,0.00024245,0.0,0 STARLINK-4810,1 53869U 22114BD  22276.25001157  .00024245  00000-0  17638-3 0  9996,2 53869  53.2144 188.4415 0001185  63.5940 145.7183 15.73237515  2814,6727.788000000001,91.531,350.45,348.856,0.0
53869.0,STARLINK-4810,PAYLOAD,2022-10-03 14:00:01,15.73219881,0.0001119,53.2144,186.7898,82.2571,216.0583,0.00010832,0.00014621,0.0,0 STARLINK-4810,1 53869U 22114BD  22276.58334491  .00014621  00000-0  10832-3 0  9998,2 53869  53.2144 186.7898 0001119  82.2571 216.0583 15.73219881  1300,6727.8380000000025,91.532,350.456,348.951,0.0
53869.0,STARLINK-4810,PAYLOAD,2022-10-03 22:00:00,15.73250349,9.69e-05,53.2148,185.1413,78.6081,308.632,-0.00038623,-0.00054588,0.0,0 STARLINK-4810,1 53869U 22114BD  22276.91667824 -.00054588  00000-0 -38623-3 0  9990,2 53869  53.2148 185.1413 0000969  78.6081 308.6320 15.73250349  2916,6727.752,91.53,350.269,348.965,0.0
